ION SCV-004             
1 50993U 22002K   26068.68892644  .00006538  00000+0  23198-3 0  9998
2 50993  97.2961 128.2294 0007216   1.6783 358.4480 15.29369331230088
STARLINK-35302          
1 65845U 25221Y   26068.42683312  .00021946  00000+0  75092-3 0  9998
2 65845  53.1586  89.5268 0001206  88.1967 271.9171 15.30198771 24695
