[{"OBJECT_NAME":"ION SCV-004","OBJECT_ID":"2022-002K","EPOCH":"2026-03-09T16:32:03.244416","MEAN_MOTION":15.29369331,"ECCENTRICITY":0.00072157,"INCLINATION":97.2961,"RA_OF_ASC_NODE":128.2294,"ARG_OF_PERICENTER":1.6783,"MEAN_ANOMALY":358.448,"EPHEMERIS_TYPE":0,"CLASSIFICATION_TYPE":"U","NORAD_CAT_ID":50993,"ELEMENT_SET_NO":999,"REV_AT_EPOCH":23008,"BSTAR":0.00023198467,"MEAN_MOTION_DOT":6.538e-5,"MEAN_MOTION_DDOT":0},{"OBJECT_NAME":"STARLINK-35302","OBJECT_ID":"2025-221Y","EPOCH":"2026-03-09T10:14:38.381568","MEAN_MOTION":15.30198771,"ECCENTRICITY":0.00012062,"INCLINATION":53.1586,"RA_OF_ASC_NODE":89.5268,"ARG_OF_PERICENTER":88.1967,"MEAN_ANOMALY":271.9171,"EPHEMERIS_TYPE":0,"CLASSIFICATION_TYPE":"U","NORAD_CAT_ID":65845,"ELEMENT_SET_NO":999,"REV_AT_EPOCH":2469,"BSTAR":0.00075092144,"MEAN_MOTION_DOT":0.00021946,"MEAN_MOTION_DDOT":0}]
